{"type": "FeatureCollection", "features": [ {"type": "Feature", "properties": {"norad_id": 37717, "name": "FENGYUN 1C DEB", "group": "fengyun-1c-debris", "lat": 63.43392421047539, "lon": 130.08906486939148, "alt_km": 543.5345151884521, "timestamp": "2025-12-03T10:52:57.743704+00:00", "meta": {"OBJECT_NAME": "FENGYUN 1C DEB", "OBJECT_ID": "1999-025EMJ", "EPOCH": "2025-11-28T15:20:52.761120", "MEAN_MOTION": 14.92855591, "ECCENTRICITY": 0.00577735, "INCLINATION": 98.7244, "RA_OF_ASC_NODE": 286.8705, "ARG_OF_PERICENTER": 147.0493, "MEAN_ANOMALY": 30.278, "EPHEMERIS_TYPE": 0, "CLASSIFICATION_TYPE": "U", "NORAD_CAT_ID": 37717, "ELEMENT_SET_NO": 999, "REV_AT_EPOCH": 89187, "BSTAR": 0.0023279704, "MEAN_MOTION_DOT": 0.00024912, "MEAN_MOTION_DDOT": 0}, "tle": {"line1": "1 37717U 99025EMJ 25332.63949955  .00024912  00000+0  23280-2 0  9999", "line2": "2 37717  98.7244 286.8705 0057773 147.0493  30.2780 14.92855591891876"}}, "geometry": {"type": "Point", "coordinates": [130.08906486939148, 63.43392421047539]}}, {"type": "Feature", "properties": {"norad_id": 37902, "name": "FENGYUN 1C DEB", "group": "fengyun-1c-debris", "lat": 49.93129404186991, "lon": -171.63156328914, "alt_km": 1008.612953417809, "timestamp": "2025-12-03T10:52:57.743715+00:00", "meta": {"OBJECT_NAME": "FENGYUN 1C DEB", "OBJECT_ID": "1999-025ENB", "EPOCH": "2025-12-01T14:15:39.156480", "MEAN_MOTION": 13.52598401, "ECCENTRICITY": 0.03241848, "INCLINATION": 98.684, "RA_OF_ASC_NODE": 197.2045, "ARG_OF_PERICENTER": 335.5889, "MEAN_ANOMALY": 23.0185, "EPHEMERIS_TYPE": 0, "CLASSIFICATION_TYPE": "U", "NORAD_CAT_ID": 37902, "ELEMENT_SET_NO": 999, "REV_AT_EPOCH": 62826, "BSTAR": 0.0025054803, "MEAN_MOTION_DOT": 2.275e-05, "MEAN_MOTION_DDOT": 0}, "tle": {"line1": "1 37902U 99025ENB 25335.59420320  .00002275  00000+0  25055-2 0  9993", "line2": "2 37902  98.6840 197.2045 0324184 335.5889  23.0185 13.52598401628260"}}, "geometry": {"type": "Point", "coordinates": [-171.63156328914, 49.93129404186991]}}, {"type": "Feature", "properties": {"norad_id": 37906, "name": "FENGYUN 1C DEB", "group": "fengyun-1c-debris", "lat": -2.5703683657609773, "lon": -162.27304247839604, "alt_km": 1039.4166319884662, "timestamp": "2025-12-03T10:52:57.743725+00:00", "meta": {"OBJECT_NAME": "FENGYUN 1C DEB", "OBJECT_ID": "1999-025ENF", "EPOCH": "2025-12-01T09:23:46.720608", "MEAN_MOTION": 13.80764682, "ECCENTRICITY": 0.01629895, "INCLINATION": 99.6032, "RA_OF_ASC_NODE": 16.0673, "ARG_OF_PERICENTER": 58.304, "MEAN_ANOMALY": 318.7787, "EPHEMERIS_TYPE": 0, "CLASSIFICATION_TYPE": "U", "NORAD_CAT_ID": 37906, "ELEMENT_SET_NO": 999, "REV_AT_EPOCH": 59299, "BSTAR": 0.00066212459, "MEAN_MOTION_DOT": 7.25e-06, "MEAN_MOTION_DDOT": 0}, "tle": {"line1": "1 37906U 99025ENF 25335.39151297  .00000725  00000+0  66212-3 0  9998", "line2": "2 37906  99.6032  16.0673 0162989  58.3040 318.7787 13.80764682592994"}}, "geometry": {"type": "Point", "coordinates": [-162.27304247839604, -2.5703683657609773]}}, {"type": "Feature", "properties": {"norad_id": 37907, "name": "FENGYUN 1C DEB", "group": "fengyun-1c-debris", "lat": 40.871291805676584, "lon": -81.9113913670647, "alt_km": 796.6407480159769, "timestamp": "2025-12-03T10:52:57.743736+00:00", "meta": {"OBJECT_NAME": "FENGYUN 1C DEB", "OBJECT_ID": "1999-025ENG", "EPOCH": "2025-11-30T02:55:58.989792", "MEAN_MOTION": 14.23288046, "ECCENTRICITY": 0.00636474, "INCLINATION": 99.08, "RA_OF_ASC_NODE": 86.699, "ARG_OF_PERICENTER": 220.282, "MEAN_ANOMALY": 139.3633, "EPHEMERIS_TYPE": 0, "CLASSIFICATION_TYPE": "U", "NORAD_CAT_ID": 37907, "ELEMENT_SET_NO": 999, "REV_AT_EPOCH": 83093, "BSTAR": 0.0031898387, "MEAN_MOTION_DOT": 7.336e-05, "MEAN_MOTION_DDOT": 0}, "tle": {"line1": "1 37907U 99025ENG 25334.12221053  .00007336  00000+0  31898-2 0  9993", "line2": "2 37907  99.0800  86.6990 0063647 220.2820 139.3633 14.23288046830933"}}, "geometry": {"type": "Point", "coordinates": [-81.9113913670647, 40.871291805676584]}}, {"type": "Feature", "properties": {"norad_id": 37908, "name": "FENGYUN 1C DEB", "group": "fengyun-1c-debris", "lat": -17.383139868578265, "lon": -174.12121332717254, "alt_km": 722.8985977563179, "timestamp": "2025-12-03T10:52:57.743747+00:00", "meta": {"OBJECT_NAME": "FENGYUN 1C DEB", "OBJECT_ID": "1999-025ENH", "EPOCH": "2025-11-30T20:06:58.592160", "MEAN_MOTION": 14.3654054, "ECCENTRICITY": 0.00743797, "INCLINATION": 99.1537, "RA_OF_ASC_NODE": 5.9942, "ARG_OF_PERICENTER": 192.521, "MEAN_ANOMALY": 167.4129, "EPHEMERIS_TYPE": 0, "CLASSIFICATION_TYPE": "U", "NORAD_CAT_ID": 37908, "ELEMENT_SET_NO": 999, "REV_AT_EPOCH": 63890, "BSTAR": 0.00050226982, "MEAN_MOTION_DOT": 1.473e-05, "MEAN_MOTION_DDOT": 0}, "tle": {"line1": "1 37908U 99025ENH 25334.83817815  .00001473  00000+0  50227-3 0  9993", "line2": "2 37908  99.1537   5.9942 0074379 192.5210 167.4129 14.36540540638900"}}, "geometry": {"type": "Point", "coordinates": [-174.12121332717254, -17.383139868578265]}}, {"type": "Feature", "properties": {"norad_id": 37912, "name": "FENGYUN 1C DEB", "group": "fengyun-1c-debris", "lat": -55.942131849778065, "lon": -40.27503903678549, "alt_km": 913.8783720347856, "timestamp": "2025-12-03T10:52:57.743757+00:00", "meta": {"OBJECT_NAME": "FENGYUN 1C DEB", "OBJECT_ID": "1999-025ENM", "EPOCH": "2025-11-28T08:38:57.406560", "MEAN_MOTION": 14.11306298, "ECCENTRICITY": 0.00912878, "INCLINATION": 99.2265, "RA_OF_ASC_NODE": 300.5793, "ARG_OF_PERICENTER": 99.6915, "MEAN_ANOMALY": 261.4581, "EPHEMERIS_TYPE": 0, "CLASSIFICATION_TYPE": "U", "NORAD_CAT_ID": 37912, "ELEMENT_SET_NO": 999, "REV_AT_EPOCH": 77085, "BSTAR": 0.0023127637, "MEAN_MOTION_DOT": 4.302e-05, "MEAN_MOTION_DDOT": 0}, "tle": {"line1": "1 37912U 99025ENM 25332.36038665  .00004302  00000+0  23128-2 0  9995", "line2": "2 37912  99.2265 300.5793 0091287  99.6915 261.4581 14.11306298770859"}}, "geometry": {"type": "Point", "coordinates": [-40.27503903678549, -55.942131849778065]}}, {"type": "Feature", "properties": {"norad_id": 37918, "name": "FENGYUN 1C DEB", "group": "fengyun-1c-debris", "lat": -61.597198829880114, "lon": -56.40338357498426, "alt_km": 745.6245803182264, "timestamp": "2025-12-03T10:52:57.743768+00:00", "meta": {"OBJECT_NAME": "FENGYUN 1C DEB", "OBJECT_ID": "1999-025ENT", "EPOCH": "2025-11-28T02:15:25.423200", "MEAN_MOTION": 14.34284603, "ECCENTRICITY": 0.00560093, "INCLINATION": 99.0257, "RA_OF_ASC_NODE": 280.91, "ARG_OF_PERICENTER": 327.008, "MEAN_ANOMALY": 32.7613, "EPHEMERIS_TYPE": 0, "CLASSIFICATION_TYPE": "U", "NORAD_CAT_ID": 37918, "ELEMENT_SET_NO": 999, "REV_AT_EPOCH": 3332, "BSTAR": 0.00093523405, "MEAN_MOTION_DOT": 2.625e-05, "MEAN_MOTION_DDOT": 0}, "tle": {"line1": "1 37918U 99025ENT 25332.09404425  .00002625  00000+0  93523-3 0  9995", "line2": "2 37918  99.0257 280.9100 0056009 327.0080  32.7613 14.34284603 33320"}}, "geometry": {"type": "Point", "coordinates": [-56.40338357498426, -61.597198829880114]}}, {"type": "Feature", "properties": {"norad_id": 37919, "name": "FENGYUN 1C DEB", "group": "fengyun-1c-debris", "lat": 4.431154974298547, "lon": -85.62723736165758, "alt_km": 776.6222657523376, "timestamp": "2025-12-03T10:52:57.743778+00:00", "meta": {"OBJECT_NAME": "FENGYUN 1C DEB", "OBJECT_ID": "1999-025ENU", "EPOCH": "2025-12-01T13:25:03.337824", "MEAN_MOTION": 14.26713739, "ECCENTRICITY": 0.00500779, "INCLINATION": 99.0554, "RA_OF_ASC_NODE": 273.1218, "ARG_OF_PERICENTER": 48.0524, "MEAN_ANOMALY": 312.4907, "EPHEMERIS_TYPE": 0, "CLASSIFICATION_TYPE": "U", "NORAD_CAT_ID": 37919, "ELEMENT_SET_NO": 999, "REV_AT_EPOCH": 64749, "BSTAR": 0.00057424201, "MEAN_MOTION_DOT": 1.361e-05, "MEAN_MOTION_DDOT": 0}, "tle": {"line1": "1 37919U 99025ENU 25335.55906641  .00001361  00000+0  57424-3 0  9993", "line2": "2 37919  99.0554 273.1218 0050077  48.0524 312.4907 14.26713739647498"}}, "geometry": {"type": "Point", "coordinates": [-85.62723736165758, 4.431154974298547]}}, {"type": "Feature", "properties": {"norad_id": 37921, "name": "FENGYUN 1C DEB", "group": "fengyun-1c-debris", "lat": -80.20520623307488, "lon": 85.72895846657659, "alt_km": 971.081440148213, "timestamp": "2025-12-03T10:52:57.743788+00:00", "meta": {"OBJECT_NAME": "FENGYUN 1C DEB", "OBJECT_ID": "1999-025ENW", "EPOCH": "2025-12-02T09:29:00.620448", "MEAN_MOTION": 13.95145191, "ECCENTRICITY": 0.00843513, "INCLINATION": 99.0237, "RA_OF_ASC_NODE": 17.6982, "ARG_OF_PERICENTER": 126.7375, "MEAN_ANOMALY": 234.157, "EPHEMERIS_TYPE": 0, "CLASSIFICATION_TYPE": "U", "NORAD_CAT_ID": 37921, "ELEMENT_SET_NO": 999, "REV_AT_EPOCH": 63003, "BSTAR": 0.00035853699, "MEAN_MOTION_DOT": 4.56e-06, "MEAN_MOTION_DDOT": 0}, "tle": {"line1": "1 37921U 99025ENW 25336.39514607  .00000456  00000+0  35854-3 0  9993", "line2": "2 37921  99.0237  17.6982 0084351 126.7375 234.1570 13.95145191630032"}}, "geometry": {"type": "Point", "coordinates": [85.72895846657659, -80.20520623307488]}}, {"type": "Feature", "properties": {"norad_id": 37925, "name": "FENGYUN 1C DEB", "group": "fengyun-1c-debris", "lat": 80.8484967463145, "lon": 108.89950878433456, "alt_km": 614.8155871630997, "timestamp": "2025-12-03T10:52:57.743799+00:00", "meta": {"OBJECT_NAME": "FENGYUN 1C DEB", "OBJECT_ID": "1999-025EPA", "EPOCH": "2025-11-29T09:06:27.767520", "MEAN_MOTION": 14.79724528, "ECCENTRICITY": 0.00581267, "INCLINATION": 99.0878, "RA_OF_ASC_NODE": 200.7871, "ARG_OF_PERICENTER": 24.2327, "MEAN_ANOMALY": 336.1595, "EPHEMERIS_TYPE": 0, "CLASSIFICATION_TYPE": "U", "NORAD_CAT_ID": 37925, "ELEMENT_SET_NO": 999, "REV_AT_EPOCH": 65485, "BSTAR": 0.0016156282, "MEAN_MOTION_DOT": 0.00012446, "MEAN_MOTION_DDOT": 0}, "tle": {"line1": "1 37925U 99025EPA 25333.37948805  .00012446  00000+0  16156-2 0  9998", "line2": "2 37925  99.0878 200.7871 0058126  24.2327 336.1595 14.79724528654855"}}, "geometry": {"type": "Point", "coordinates": [108.89950878433456, 80.8484967463145]}}]}